{"type": "FeatureCollection", "features": [ {"type": "Feature", "properties": {"norad_id": 49810, "name": "GSAT0224 (GALILEO 28)", "group": "gnss", "lat": -10.729013619060677, "lon": -20.21182690416177, "alt_km": 23224.214653478863, "timestamp": "2025-12-09T07:41:33.450283+00:00", "meta": {"OBJECT_NAME": "GSAT0224 (GALILEO 28)", "OBJECT_ID": "2021-116B", "EPOCH": "2025-12-07T13:56:35.698272", "MEAN_MOTION": 1.7047563, "ECCENTRICITY": 0.00040182, "INCLINATION": 57.2213, "RA_OF_ASC_NODE": 346.8506, "ARG_OF_PERICENTER": 254.5241, "MEAN_ANOMALY": 105.0474, "EPHEMERIS_TYPE": 0, "CLASSIFICATION_TYPE": "U", "NORAD_CAT_ID": 49810, "ELEMENT_SET_NO": 999, "REV_AT_EPOCH": 2493, "BSTAR": 0, "MEAN_MOTION_DOT": -8.4e-07, "MEAN_MOTION_DDOT": 0}, "tle": {"line1": "1 49810U 21116B   25341.58096873 -.00000084  00000+0  00000+0 0  9995", "line2": "2 49810  57.2213 346.8506 0004018 254.5241 105.0474  1.70475630 24934"}}, "geometry": {"type": "Point", "coordinates": [-20.21182690416177, -10.729013619060677]}}, {"type": "Feature", "properties": {"norad_id": 52984, "name": "COSMOS 2557 (706K)", "group": "gnss", "lat": -18.783482634840684, "lon": 150.5371323733993, "alt_km": 19124.277953890345, "timestamp": "2025-12-09T07:41:33.450297+00:00", "meta": {"OBJECT_NAME": "COSMOS 2557 (706K)", "OBJECT_ID": "2022-075A", "EPOCH": "2025-12-07T04:21:00.419904", "MEAN_MOTION": 2.13101754, "ECCENTRICITY": 0.00137049, "INCLINATION": 64.4129, "RA_OF_ASC_NODE": 321.247, "ARG_OF_PERICENTER": 276.9, "MEAN_ANOMALY": 82.939, "EPHEMERIS_TYPE": 0, "CLASSIFICATION_TYPE": "U", "NORAD_CAT_ID": 52984, "ELEMENT_SET_NO": 999, "REV_AT_EPOCH": 2662, "BSTAR": 0, "MEAN_MOTION_DOT": -5.2e-07, "MEAN_MOTION_DDOT": 0}, "tle": {"line1": "1 52984U 22075A   25341.18125486 -.00000052  00000+0  00000+0 0  9990", "line2": "2 52984  64.4129 321.2470 0013704 276.9000  82.9390  2.13101754 26625"}}, "geometry": {"type": "Point", "coordinates": [150.5371323733993, -18.783482634840684]}}, {"type": "Feature", "properties": {"norad_id": 54031, "name": "COSMOS 2559 (707K)", "group": "gnss", "lat": -18.01301372506505, "lon": -47.723263055460855, "alt_km": 19158.267304159268, "timestamp": "2025-12-09T07:41:33.450308+00:00", "meta": {"OBJECT_NAME": "COSMOS 2559 (707K)", "OBJECT_ID": "2022-130A", "EPOCH": "2025-12-08T21:03:33.189408", "MEAN_MOTION": 2.13101268, "ECCENTRICITY": 0.00119077, "INCLINATION": 64.3845, "RA_OF_ASC_NODE": 321.277, "ARG_OF_PERICENTER": 192.5863, "MEAN_ANOMALY": 167.3811, "EPHEMERIS_TYPE": 0, "CLASSIFICATION_TYPE": "U", "NORAD_CAT_ID": 54031, "ELEMENT_SET_NO": 999, "REV_AT_EPOCH": 2463, "BSTAR": 0, "MEAN_MOTION_DOT": -5.1e-07, "MEAN_MOTION_DDOT": 0}, "tle": {"line1": "1 54031U 22130A   25342.87746747 -.00000051  00000+0  00000+0 0  9992", "line2": "2 54031  64.3845 321.2770 0011907 192.5863 167.3811  2.13101268 24635"}}, "geometry": {"type": "Point", "coordinates": [-47.723263055460855, -18.01301372506505]}}, {"type": "Feature", "properties": {"norad_id": 54377, "name": "COSMOS 2564 (761)", "group": "gnss", "lat": 63.17277471549808, "lon": -50.00885288563418, "alt_km": 19129.335174602304, "timestamp": "2025-12-09T07:41:33.450320+00:00", "meta": {"OBJECT_NAME": "COSMOS 2564 (761)", "OBJECT_ID": "2022-161A", "EPOCH": "2025-12-06T20:16:19.958016", "MEAN_MOTION": 2.13101987, "ECCENTRICITY": 0.0008674, "INCLINATION": 64.7378, "RA_OF_ASC_NODE": 199.0949, "ARG_OF_PERICENTER": 205.6872, "MEAN_ANOMALY": 154.3558, "EPHEMERIS_TYPE": 0, "CLASSIFICATION_TYPE": "U", "NORAD_CAT_ID": 54377, "ELEMENT_SET_NO": 999, "REV_AT_EPOCH": 2353, "BSTAR": 0, "MEAN_MOTION_DOT": 6.7e-07, "MEAN_MOTION_DDOT": 0}, "tle": {"line1": "1 54377U 22161A   25340.84467544  .00000067  00000+0  00000+0 0  9995", "line2": "2 54377  64.7378 199.0949 0008674 205.6872 154.3558  2.13101987 23535"}}, "geometry": {"type": "Point", "coordinates": [-50.00885288563418, 63.17277471549808]}}, {"type": "Feature", "properties": {"norad_id": 55268, "name": "GPS BIII-6  (PRN 28)", "group": "gnss", "lat": -41.83541998621599, "lon": 14.654488482067878, "alt_km": 20192.928232083817, "timestamp": "2025-12-09T07:41:33.450331+00:00", "meta": {"OBJECT_NAME": "GPS BIII-6  (PRN 28)", "OBJECT_ID": "2023-009A", "EPOCH": "2025-12-08T05:52:26.989248", "MEAN_MOTION": 2.00555991, "ECCENTRICITY": 0.0003615, "INCLINATION": 55.1046, "RA_OF_ASC_NODE": 156.0217, "ARG_OF_PERICENTER": 356.7859, "MEAN_ANOMALY": 180.9144, "EPHEMERIS_TYPE": 0, "CLASSIFICATION_TYPE": "U", "NORAD_CAT_ID": 55268, "ELEMENT_SET_NO": 999, "REV_AT_EPOCH": 2141, "BSTAR": 0, "MEAN_MOTION_DOT": 5.9e-07, "MEAN_MOTION_DDOT": 0}, "tle": {"line1": "1 55268U 23009A   25342.24475682  .00000059  00000+0  00000+0 0  9996", "line2": "2 55268  55.1046 156.0217 0003615 356.7859 180.9144  2.00555991 21410"}}, "geometry": {"type": "Point", "coordinates": [14.654488482067878, -41.83541998621599]}}, {"type": "Feature", "properties": {"norad_id": 56564, "name": "BEIDOU-3 G4 (C62)", "group": "gnss", "lat": 0.6530265147798552, "lon": -6.236822667942739, "alt_km": 35798.916582511396, "timestamp": "2025-12-09T07:41:33.450345+00:00", "meta": {"OBJECT_NAME": "BEIDOU-3 G4 (C62)", "OBJECT_ID": "2023-066A", "EPOCH": "2025-12-08T21:12:47.118816", "MEAN_MOTION": 1.00271183, "ECCENTRICITY": 0.00030423, "INCLINATION": 0.8232, "RA_OF_ASC_NODE": 301.7536, "ARG_OF_PERICENTER": 235.8213, "MEAN_ANOMALY": 18.5721, "EPHEMERIS_TYPE": 0, "CLASSIFICATION_TYPE": "U", "NORAD_CAT_ID": 56564, "ELEMENT_SET_NO": 999, "REV_AT_EPOCH": 948, "BSTAR": 0, "MEAN_MOTION_DOT": -1.09e-06, "MEAN_MOTION_DDOT": 0}, "tle": {"line1": "1 56564U 23066A   25342.88387869 -.00000109  00000+0  00000+0 0  9995", "line2": "2 56564   0.8232 301.7536 0003042 235.8213  18.5721  1.00271183  9489"}}, "geometry": {"type": "Point", "coordinates": [-6.236822667942739, 0.6530265147798552]}}, {"type": "Feature", "properties": {"norad_id": 56759, "name": "NVS-01 (IRNSS-1J)", "group": "gnss", "lat": 2.485596766139411, "lon": -36.80013231456812, "alt_km": 35771.12705973559, "timestamp": "2025-12-09T07:41:33.450358+00:00", "meta": {"OBJECT_NAME": "NVS-01 (IRNSS-1J)", "OBJECT_ID": "2023-076A", "EPOCH": "2025-12-08T22:46:48.758016", "MEAN_MOTION": 1.00264947, "ECCENTRICITY": 0.00086708, "INCLINATION": 2.6275, "RA_OF_ASC_NODE": 251.7393, "ARG_OF_PERICENTER": 8.3186, "MEAN_ANOMALY": 289.0362, "EPHEMERIS_TYPE": 0, "CLASSIFICATION_TYPE": "U", "NORAD_CAT_ID": 56759, "ELEMENT_SET_NO": 999, "REV_AT_EPOCH": 920, "BSTAR": 0, "MEAN_MOTION_DOT": -3.34e-06, "MEAN_MOTION_DDOT": 0}, "tle": {"line1": "1 56759U 23076A   25342.94917544 -.00000334  00000+0  00000+0 0  9998", "line2": "2 56759   2.6275 251.7393 0008670   8.3186 289.0362  1.00264947  9207"}}, "geometry": {"type": "Point", "coordinates": [-36.80013231456812, 2.485596766139411]}}, {"type": "Feature", "properties": {"norad_id": 57517, "name": "COSMOS 2569 (703K)", "group": "gnss", "lat": 65.19610403150774, "lon": 166.8218080010618, "alt_km": 19147.892705689483, "timestamp": "2025-12-09T07:41:33.450369+00:00", "meta": {"OBJECT_NAME": "COSMOS 2569 (703K)", "OBJECT_ID": "2023-114A", "EPOCH": "2025-12-07T19:07:05.045952", "MEAN_MOTION": 2.13103857, "ECCENTRICITY": 0.00103488, "INCLINATION": 65.1916, "RA_OF_ASC_NODE": 79.0806, "ARG_OF_PERICENTER": 287.0317, "MEAN_ANOMALY": 72.8691, "EPHEMERIS_TYPE": 0, "CLASSIFICATION_TYPE": "U", "NORAD_CAT_ID": 57517, "ELEMENT_SET_NO": 999, "REV_AT_EPOCH": 1818, "BSTAR": 0, "MEAN_MOTION_DOT": -1.2e-07, "MEAN_MOTION_DDOT": 0}, "tle": {"line1": "1 57517U 23114A   25341.79658618 -.00000012  00000+0  00000+0 0  9993", "line2": "2 57517  65.1916  79.0806 0010348 287.0317  72.8691  2.13103857 18180"}}, "geometry": {"type": "Point", "coordinates": [166.8218080010618, 65.19610403150774]}}, {"type": "Feature", "properties": {"norad_id": 58654, "name": "BEIDOU-3 M28 (C50)", "group": "gnss", "lat": 50.78157742737478, "lon": 125.75483467094864, "alt_km": 21528.138245401573, "timestamp": "2025-12-09T07:41:33.450387+00:00", "meta": {"OBJECT_NAME": "BEIDOU-3 M28 (C50)", "OBJECT_ID": "2023-207A", "EPOCH": "2025-12-07T14:31:49.044864", "MEAN_MOTION": 1.86229593, "ECCENTRICITY": 0.0002234, "INCLINATION": 55.5801, "RA_OF_ASC_NODE": 68.7753, "ARG_OF_PERICENTER": 268.0479, "MEAN_ANOMALY": 91.9457, "EPHEMERIS_TYPE": 0, "CLASSIFICATION_TYPE": "U", "NORAD_CAT_ID": 58654, "ELEMENT_SET_NO": 999, "REV_AT_EPOCH": 1327, "BSTAR": 0, "MEAN_MOTION_DOT": -4.6e-07, "MEAN_MOTION_DDOT": 0}, "tle": {"line1": "1 58654U 23207A   25341.60542876 -.00000046  00000+0  00000+0 0  9994", "line2": "2 58654  55.5801  68.7753 0002234 268.0479  91.9457  1.86229593 13270"}}, "geometry": {"type": "Point", "coordinates": [125.75483467094864, 50.78157742737478]}}, {"type": "Feature", "properties": {"norad_id": 58655, "name": "BEIDOU-3 M26 (C48)", "group": "gnss", "lat": -20.810911948940266, "lon": -96.204380869361, "alt_km": 21524.109817862714, "timestamp": "2025-12-09T07:41:33.450398+00:00", "meta": {"OBJECT_NAME": "BEIDOU-3 M26 (C48)", "OBJECT_ID": "2023-207B", "EPOCH": "2025-12-08T11:26:54.595392", "MEAN_MOTION": 1.8623113, "ECCENTRICITY": 0.00036549, "INCLINATION": 55.583, "RA_OF_ASC_NODE": 68.7321, "ARG_OF_PERICENTER": 253.8899, "MEAN_ANOMALY": 106.0912, "EPHEMERIS_TYPE": 0, "CLASSIFICATION_TYPE": "U", "NORAD_CAT_ID": 58655, "ELEMENT_SET_NO": 999, "REV_AT_EPOCH": 1327, "BSTAR": 0, "MEAN_MOTION_DOT": -4.7e-07, "MEAN_MOTION_DDOT": 0}, "tle": {"line1": "1 58655U 23207B   25342.47702078 -.00000047  00000+0  00000+0 0  9994", "line2": "2 58655  55.5830  68.7321 0003654 253.8899 106.0912  1.86231130 13273"}}, "geometry": {"type": "Point", "coordinates": [-96.204380869361, -20.810911948940266]}}]}